format  = 'OEF1.1'       ! file format
rectype = 'ML'           ! record type (1L/ML)
refsys  = ECLM J2000     ! default reference system
END_OF_HEADER
8014
! Equinoctial elements: a, e*sin(LP), e*cos(LP), tan(i/2)*sin(LN), tan(i/2)*cos(LN), mean long.
 EQU   1.74670455129735E+00 -0.264665328378047  0.371061480161437 -0.008281663546131 -0.013951843529260 253.3687427392203
 MJD     48789.37100179 TDT
 MAG  18.542  0.150
! RMS    3.14050E-08   2.51617E-07   1.85960E-07   3.09143E-07   9.74431E-08   2.09654E-05
! EIG   5.24723E-09   2.76449E-08   7.84684E-08   1.25593E-07   2.83381E-07   4.84572E-07
! WEA  -0.01790   0.48845   0.33846  -0.33264  -0.11667   0.72269
 COV   9.862761084314608E-16 -1.783550908855005E-15  5.003583033527357E-16
 COV   1.694062706899851E-15  9.679389619008993E-16 -2.225979967382483E-13
 COV   6.331112729823962E-14  3.737845506715097E-14 -3.465854775721565E-14
 COV  -1.916494925912993E-14  4.544536322608080E-12  3.458126446080625E-14
 COV  -1.275857780916204E-14 -6.918903345254939E-15  3.525672747161981E-12
 COV   9.556968738590936E-14  5.450000678708206E-15 -1.934703653295681E-12
 COV   9.495148829054821E-15 -1.011225359198774E-12  4.395490098163385E-10
 NOR   3.111219373885806E+16 -2.129177522272669E+15 -1.032972651858172E+16
 NOR  -2.539678212264421E+14 -2.811832361054398E+15  1.130388695898813E+14
 NOR   5.649955313486375E+14  5.137671341624392E+14  8.798841683914914E+13
 NOR   7.241315001479901E+14 -8.987567740368998E+12  3.684562360306464E+15
 NOR   4.684159700523258E+13  6.617209671312780E+14 -3.836886655011009E+13
 NOR   2.561693350573533E+13  1.116919366855511E+14 -1.044344368077963E+12
 NOR   1.072469386564080E+15 -1.125963791615167E+13  4.297042846848447E+11
